0 SL-14 DEB
1 29065U 78100AX  13272.89544689  .00000017  00000-0  10000-3 0  3262
2 29065 082.5537 126.4648 0017802 203.5794 156.5151 11.98460902449240
0 SL-14 DEB
1 29065U 78100AX  13276.31808047  .00000017  00000-0  10000-3 0  3275
2 29065 082.5384 124.4997 0017786 195.7707 164.2795 11.98460848449656
0 SL-14 DEB
1 29065U 78100AX  13278.32158216  .00000017  00000-0  10000-3 0  3285
2 29065 082.5370 123.3583 0018067 190.4092 169.6631 11.98461040449891
